IRIDIUM 136             
1 42962U 17061H   23238.65632855  .00000298  00000+0  99176-4 0  9990
2 42962  86.3925  93.8595 0002054  94.2649 265.8781 14.34219275307849
